{
  "links" : {
    "next" : "https://api.nasa.gov/neo/rest/v1/feed?start_date=2001-11-09&end_date=2001-11-09&detailed=true&api_key=t0TVs3DtDT2H8Oy2Zy8m2eVrNsAVKAexjcZXUckd",
    "prev" : "https://api.nasa.gov/neo/rest/v1/feed?start_date=2001-11-07&end_date=2001-11-07&detailed=true&api_key=t0TVs3DtDT2H8Oy2Zy8m2eVrNsAVKAexjcZXUckd",
    "self" : "https://api.nasa.gov/neo/rest/v1/feed?start_date=2001-11-08&end_date=2001-11-08&detailed=true&api_key=t0TVs3DtDT2H8Oy2Zy8m2eVrNsAVKAexjcZXUckd"
  },
  "element_count" : 9,
  "near_earth_objects" : {
    "2001-11-08" : [ {
      "links" : {
        "self" : "https://api.nasa.gov/neo/rest/v1/neo/3092415?api_key=t0TVs3DtDT2H8Oy2Zy8m2eVrNsAVKAexjcZXUckd"
      },
      "neo_reference_id" : "3092415",
      "name" : "(2001 UE18)",
      "nasa_jpl_url" : "http://ssd.jpl.nasa.gov/sbdb.cgi?sstr=3092415",
      "absolute_magnitude_h" : 22.5,
      "estimated_diameter" : {
        "kilometers" : {
          "estimated_diameter_min" : 0.0840533402,
          "estimated_diameter_max" : 0.1879489824
        },
        "meters" : {
          "estimated_diameter_min" : 84.0533402073,
          "estimated_diameter_max" : 187.9489824394
        },
        "miles" : {
          "estimated_diameter_min" : 0.0522283081,
          "estimated_diameter_max" : 0.1167860472
        },
        "feet" : {
          "estimated_diameter_min" : 275.7655606856,
          "estimated_diameter_max" : 616.6305395464
        }
      },
      "is_potentially_hazardous_asteroid" : false,
      "close_approach_data" : [ {
        "close_approach_date" : "2001-11-08",
        "epoch_date_close_approach" : 1005206400000,
        "relative_velocity" : {
          "kilometers_per_second" : "8.109155113",
          "kilometers_per_hour" : "29192.9584067627",
          "miles_per_hour" : "18139.3690722465"
        },
        "miss_distance" : {
          "astronomical" : "0.1945461859",
          "lunar" : "75.6784667969",
          "kilometers" : "29103696",
          "miles" : "18084198"
        },
        "orbiting_body" : "Earth"
      } ],
      "orbital_data" : {
        "orbit_id" : "8",
        "orbit_determination_date" : "2017-04-06 09:15:55",
        "orbit_uncertainty" : "9",
        "minimum_orbit_intersection" : ".191272",
        "jupiter_tisserand_invariant" : "4.801",
        "epoch_osculation" : "2452210.5",
        "eccentricity" : ".1804001909982839",
        "semi_major_axis" : "1.358013490846902",
        "inclination" : "15.35668553310702",
        "ascending_node_longitude" : "33.25955942613878",
        "orbital_period" : "578.0355559101846",
        "perihelion_distance" : "1.113027597719875",
        "perihelion_argument" : "60.67551823489638",
        "aphelion_distance" : "1.60299938397393",
        "perihelion_time" : "2452277.495907620606",
        "mean_anomaly" : "318.2750118105785",
        "mean_motion" : ".6227990584993303",
        "equinox" : "J2000"
      }
    }, {
      "links" : {
        "self" : "https://api.nasa.gov/neo/rest/v1/neo/3092483?api_key=t0TVs3DtDT2H8Oy2Zy8m2eVrNsAVKAexjcZXUckd"
      },
      "neo_reference_id" : "3092483",
      "name" : "(2001 VM5)",
      "nasa_jpl_url" : "http://ssd.jpl.nasa.gov/sbdb.cgi?sstr=3092483",
      "absolute_magnitude_h" : 25.1,
      "estimated_diameter" : {
        "kilometers" : {
          "estimated_diameter_min" : 0.0253837029,
          "estimated_diameter_max" : 0.0567596853
        },
        "meters" : {
          "estimated_diameter_min" : 25.3837029364,
          "estimated_diameter_max" : 56.7596852866
        },
        "miles" : {
          "estimated_diameter_min" : 0.0157726969,
          "estimated_diameter_max" : 0.0352688224
        },
        "feet" : {
          "estimated_diameter_min" : 83.279867942,
          "estimated_diameter_max" : 186.2194458756
        }
      },
      "is_potentially_hazardous_asteroid" : false,
      "close_approach_data" : [ {
        "close_approach_date" : "2001-11-08",
        "epoch_date_close_approach" : 1005206400000,
        "relative_velocity" : {
          "kilometers_per_second" : "8.3261926404",
          "kilometers_per_hour" : "29974.2935052848",
          "miles_per_hour" : "18624.8603172144"
        },
        "miss_distance" : {
          "astronomical" : "0.014894508",
          "lunar" : "5.7939634323",
          "kilometers" : "2228186.75",
          "miles" : "1384531"
        },
        "orbiting_body" : "Earth"
      } ],
      "orbital_data" : {
        "orbit_id" : "8",
        "orbit_determination_date" : "2017-04-06 09:15:51",
        "orbit_uncertainty" : "9",
        "minimum_orbit_intersection" : ".014091",
        "jupiter_tisserand_invariant" : "3.253",
        "epoch_osculation" : "2452226.5",
        "eccentricity" : ".5862116022744094",
        "semi_major_axis" : "2.415243626960037",
        "inclination" : "5.851546250865335",
        "ascending_node_longitude" : "231.7457685695216",
        "orbital_period" : "1371.007542709042",
        "perihelion_distance" : ".9993997905167378",
        "perihelion_argument" : "168.6055103773296",
        "aphelion_distance" : "3.831087463403337",
        "perihelion_time" : "2452217.171041170344",
        "mean_anomaly" : "2.449603721391701",
        "mean_motion" : ".262580612276325",
        "equinox" : "J2000"
      }
    }, {
      "links" : {
        "self" : "https://api.nasa.gov/neo/rest/v1/neo/2162004?api_key=t0TVs3DtDT2H8Oy2Zy8m2eVrNsAVKAexjcZXUckd"
      },
      "neo_reference_id" : "2162004",
      "name" : "162004 (1991 VE)",
      "nasa_jpl_url" : "http://ssd.jpl.nasa.gov/sbdb.cgi?sstr=2162004",
      "absolute_magnitude_h" : 18.2,
      "estimated_diameter" : {
        "kilometers" : {
          "estimated_diameter_min" : 0.6089126221,
          "estimated_diameter_max" : 1.3615700154
        },
        "meters" : {
          "estimated_diameter_min" : 608.9126221057,
          "estimated_diameter_max" : 1361.5700153859
        },
        "miles" : {
          "estimated_diameter_min" : 0.3783606449,
          "estimated_diameter_max" : 0.846040122
        },
        "feet" : {
          "estimated_diameter_min" : 1997.7448871092,
          "estimated_diameter_max" : 4467.0933692788
        }
      },
      "is_potentially_hazardous_asteroid" : false,
      "close_approach_data" : [ {
        "close_approach_date" : "2001-11-08",
        "epoch_date_close_approach" : 1005206400000,
        "relative_velocity" : {
          "kilometers_per_second" : "31.6093275563",
          "kilometers_per_hour" : "113793.5792026516",
          "miles_per_hour" : "70706.9048106698"
        },
        "miss_distance" : {
          "astronomical" : "0.3311658109",
          "lunar" : "128.8235015869",
          "kilometers" : "49541704",
          "miles" : "30783786"
        },
        "orbiting_body" : "Earth"
      } ],
      "orbital_data" : {
        "orbit_id" : "165",
        "orbit_determination_date" : "2017-04-06 09:26:41",
        "orbit_uncertainty" : "0",
        "minimum_orbit_intersection" : ".0578928",
        "jupiter_tisserand_invariant" : "6.455",
        "epoch_osculation" : "2455233.5",
        "eccentricity" : ".6645118766417184",
        "semi_major_axis" : ".8907955120131161",
        "inclination" : "7.220327144353877",
        "ascending_node_longitude" : "61.96858336510567",
        "orbital_period" : "307.0898465041557",
        "perihelion_distance" : ".2988513146212599",
        "perihelion_argument" : "193.5473642284032",
        "aphelion_distance" : "1.482739709404972",
        "perihelion_time" : "2455249.135945964447",
        "mean_anomaly" : "341.6700532066444",
        "mean_motion" : "1.172295352966443",
        "equinox" : "J2000"
      }
    } ]
  }
}